{
  "type": "FeatureCollection",
  "features": [
    {
      "type": "Feature",
      "properties": {
        "norad_id": 35987,
        "name": "COSMOS 2251 DEB",
        "group": "cosmos-2251-debris",
        "lat": 73.84913011479613,
        "lon": 50.86608008109455,
        "alt_km": 708.3042597999747,
        "timestamp": "2025-12-11T15:53:39.940842+00:00",
        "meta_object_name": "COSMOS 2251 DEB",
        "meta_object_id": "1993-036AWD",
        "meta_epoch": "2025-12-11T05:30:31.150080",
        "meta_mean_motion": 14.43110132,
        "meta_eccentricity": 0.00459363,
        "meta_inclination": 74.0001,
        "meta_ra_of_asc_node": 329.4532,
        "meta_arg_of_pericenter": 95.6067,
        "meta_mean_anomaly": 265.033,
        "meta_ephemeris_type": 0,
        "meta_classification_type": "U",
        "meta_norad_cat_id": 35987,
        "meta_element_set_no": 999,
        "meta_rev_at_epoch": 61043,
        "meta_bstar": 0.0014697546,
        "meta_mean_motion_dot": 4.973e-05,
        "meta_mean_motion_ddot": 0,
        "tle_line1": "1 35987U 93036AWD 25345.22952720  .00004973  00000+0  14698-2 0  9993",
        "tle_line2": "2 35987  74.0001 329.4532 0045936  95.6067 265.0330 14.43110132610437"
      },
      "geometry": {
        "type": "Point",
        "coordinates": [
          50.86608008109455,
          73.84913011479613
        ]
      }
    },
    {
      "type": "Feature",
      "properties": {
        "norad_id": 35989,
        "name": "COSMOS 2251 DEB",
        "group": "cosmos-2251-debris",
        "lat": 22.58752434630811,
        "lon": 98.97582529870859,
        "alt_km": 780.7299032812889,
        "timestamp": "2025-12-11T15:53:39.940852+00:00",
        "meta_object_name": "COSMOS 2251 DEB",
        "meta_object_id": "1993-036AWF",
        "meta_epoch": "2025-12-10T12:26:20.084064",
        "meta_mean_motion": 14.37097303,
        "meta_eccentricity": 0.0021915,
        "meta_inclination": 74.0383,
        "meta_ra_of_asc_node": 287.9166,
        "meta_arg_of_pericenter": 10.2145,
        "meta_mean_anomaly": 349.9449,
        "meta_ephemeris_type": 0,
        "meta_classification_type": "U",
        "meta_norad_cat_id": 35989,
        "meta_element_set_no": 999,
        "meta_rev_at_epoch": 87147,
        "meta_bstar": 0.00040745,
        "meta_mean_motion_dot": 1.187e-05,
        "meta_mean_motion_ddot": 0,
        "tle_line1": "1 35989U 93036AWF 25344.51828801  .00001187  00000+0  40745-3 0  9995",
        "tle_line2": "2 35989  74.0383 287.9166 0021915  10.2145 349.9449 14.37097303871477"
      },
      "geometry": {
        "type": "Point",
        "coordinates": [
          98.97582529870859,
          22.58752434630811
        ]
      }
    },
    {
      "type": "Feature",
      "properties": {
        "norad_id": 35993,
        "name": "COSMOS 2251 DEB",
        "group": "cosmos-2251-debris",
        "lat": -67.74103763282784,
        "lon": -69.57906836356048,
        "alt_km": 693.4708818088538,
        "timestamp": "2025-12-11T15:53:39.940862+00:00",
        "meta_object_name": "COSMOS 2251 DEB",
        "meta_object_id": "1993-036AWK",
        "meta_epoch": "2025-12-09T16:42:55.834848",
        "meta_mean_motion": 14.65265094,
        "meta_eccentricity": 0.00290722,
        "meta_inclination": 74.0153,
        "meta_ra_of_asc_node": 338.6616,
        "meta_arg_of_pericenter": 169.2926,
        "meta_mean_anomaly": 190.8869,
        "meta_ephemeris_type": 0,
        "meta_classification_type": "U",
        "meta_norad_cat_id": 35993,
        "meta_element_set_no": 999,
        "meta_rev_at_epoch": 60398,
        "meta_bstar": 0.0011875212,
        "meta_mean_motion_dot": 6.416e-05,
        "meta_mean_motion_ddot": 0,
        "tle_line1": "1 35993U 93036AWK 25343.69647957  .00006416  00000+0  11875-2 0  9990",
        "tle_line2": "2 35993  74.0153 338.6616 0029072 169.2926 190.8869 14.65265094603988"
      },
      "geometry": {
        "type": "Point",
        "coordinates": [
          -69.57906836356048,
          -67.74103763282784
        ]
      }
    },
    {
      "type": "Feature",
      "properties": {
        "norad_id": 35996,
        "name": "COSMOS 2251 DEB",
        "group": "cosmos-2251-debris",
        "lat": -20.270071998699944,
        "lon": -68.2793138150427,
        "alt_km": 482.87013255451893,
        "timestamp": "2025-12-11T15:53:39.940872+00:00",
        "meta_object_name": "COSMOS 2251 DEB",
        "meta_object_id": "1993-036AWN",
        "meta_epoch": "2025-12-11T00:41:09.521088",
        "meta_mean_motion": 15.0906793,
        "meta_eccentricity": 0.00884253,
        "meta_inclination": 74.0157,
        "meta_ra_of_asc_node": 106.9511,
        "meta_arg_of_pericenter": 198.4339,
        "meta_mean_anomaly": 161.3644,
        "meta_ephemeris_type": 0,
        "meta_classification_type": "U",
        "meta_norad_cat_id": 35996,
        "meta_element_set_no": 999,
        "meta_rev_at_epoch": 72300,
        "meta_bstar": 0.0011651351,
        "meta_mean_motion_dot": 0.00020245,
        "meta_mean_motion_ddot": 0,
        "tle_line1": "1 35996U 93036AWN 25345.02858242  .00020245  00000+0  11651-2 0  9991",
        "tle_line2": "2 35996  74.0157 106.9511 0088425 198.4339 161.3644 15.09067930723002"
      },
      "geometry": {
        "type": "Point",
        "coordinates": [
          -68.2793138150427,
          -20.270071998699944
        ]
      }
    },
    {
      "type": "Feature",
      "properties": {
        "norad_id": 35997,
        "name": "COSMOS 2251 DEB",
        "group": "cosmos-2251-debris",
        "lat": 23.05245425799238,
        "lon": 2.3273283527423856,
        "alt_km": 724.1920207915919,
        "timestamp": "2025-12-11T15:53:39.940882+00:00",
        "meta_object_name": "COSMOS 2251 DEB",
        "meta_object_id": "1993-036AWP",
        "meta_epoch": "2025-12-09T20:09:48.839904",
        "meta_mean_motion": 14.51292272,
        "meta_eccentricity": 0.00157365,
        "meta_inclination": 74.043,
        "meta_ra_of_asc_node": 192.7469,
        "meta_arg_of_pericenter": 268.5156,
        "meta_mean_anomaly": 91.4203,
        "meta_ephemeris_type": 0,
        "meta_classification_type": "U",
        "meta_norad_cat_id": 35997,
        "meta_element_set_no": 999,
        "meta_rev_at_epoch": 70842,
        "meta_bstar": 0.00093479882,
        "meta_mean_motion_dot": 3.7e-05,
        "meta_mean_motion_ddot": 0,
        "tle_line1": "1 35997U 93036AWP 25343.84014861  .00003700  00000+0  93480-3 0  9999",
        "tle_line2": "2 35997  74.0430 192.7469 0015736 268.5156  91.4203 14.51292272708421"
      },
      "geometry": {
        "type": "Point",
        "coordinates": [
          2.3273283527423856,
          23.05245425799238
        ]
      }
    },
    {
      "type": "Feature",
      "properties": {
        "norad_id": 36005,
        "name": "COSMOS 2251 DEB",
        "group": "cosmos-2251-debris",
        "lat": -21.656503535489946,
        "lon": -77.44731389499871,
        "alt_km": 701.4308676014025,
        "timestamp": "2025-12-11T15:53:39.940893+00:00",
        "meta_object_name": "COSMOS 2251 DEB",
        "meta_object_id": "1993-036AWX",
        "meta_epoch": "2025-12-10T17:23:32.272512",
        "meta_mean_motion": 14.47353034,
        "meta_eccentricity": 0.00619888,
        "meta_inclination": 74.0266,
        "meta_ra_of_asc_node": 97.7757,
        "meta_arg_of_pericenter": 235.5382,
        "meta_mean_anomaly": 123.9911,
        "meta_ephemeris_type": 0,
        "meta_classification_type": "U",
        "meta_norad_cat_id": 36005,
        "meta_element_set_no": 999,
        "meta_rev_at_epoch": 87555,
        "meta_bstar": 0.00035630183,
        "meta_mean_motion_dot": 1.308e-05,
        "meta_mean_motion_ddot": 0,
        "tle_line1": "1 36005U 93036AWX 25344.72467908  .00001308  00000+0  35630-3 0  9997",
        "tle_line2": "2 36005  74.0266  97.7757 0061988 235.5382 123.9911 14.47353034875553"
      },
      "geometry": {
        "type": "Point",
        "coordinates": [
          -77.44731389499871,
          -21.656503535489946
        ]
      }
    },
    {
      "type": "Feature",
      "properties": {
        "norad_id": 36045,
        "name": "COSMOS 2251 DEB",
        "group": "cosmos-2251-debris",
        "lat": 7.494235304065255,
        "lon": -120.98420128226502,
        "alt_km": 666.9026459852084,
        "timestamp": "2025-12-11T15:53:39.940903+00:00",
        "meta_object_name": "COSMOS 2251 DEB",
        "meta_object_id": "1993-036AXG",
        "meta_epoch": "2025-12-09T12:28:41.789568",
        "meta_mean_motion": 14.69724058,
        "meta_eccentricity": 0.00485126,
        "meta_inclination": 73.764,
        "meta_ra_of_asc_node": 65.432,
        "meta_arg_of_pericenter": 80.3147,
        "meta_mean_anomaly": 280.3498,
        "meta_ephemeris_type": 0,
        "meta_classification_type": "U",
        "meta_norad_cat_id": 36045,
        "meta_element_set_no": 999,
        "meta_rev_at_epoch": 8341,
        "meta_bstar": 0.003329583,
        "meta_mean_motion_dot": 0.00020233,
        "meta_mean_motion_ddot": 0,
        "tle_line1": "1 36045U 93036AXG 25343.51992812  .00020233  00000+0  33296-2 0  9997",
        "tle_line2": "2 36045  73.7640  65.4320 0048512  80.3147 280.3498 14.69724058 83416"
      },
      "geometry": {
        "type": "Point",
        "coordinates": [
          -120.98420128226502,
          7.494235304065255
        ]
      }
    }
  ]
}